     2.11           N: GPS NAV DATA                         RINEX VERSION / TYPE
teqc  2019Feb25                         20221121 12:26:30UTCPGM / RUN BY / DATE
OSX ker:10.11.6|Core i5|gcc 4.3 -m64|OSX ker:10.10+|=+      COMMENT
    5.5879D-09  1.4901D-08 -5.9605D-08 -1.1921D-07          ION ALPHA
    7.7824D+04  3.2768D+04 -6.5536D+04 -2.6214D+05          ION BETA
    3.725290298462D-09 1.332267629550D-14   147456     1546 DELTA-UTC: A0,A1,T,W
                                                            END OF HEADER
22 09  8 23  9 59 44.0 1.926328986883D-04-1.023181539495D-12 0.000000000000D+00
    2.700000000000D+01-1.743750000000D+01 5.473085118821D-09-2.626901785621D+00
   -1.056119799614D-06 5.299248616211D-03 2.598389983177D-06 5.153657800674D+03
    3.598400000000D+04 1.695007085800D-07-9.428935334032D-01 4.656612873077D-08
    9.385239112081D-01 3.151875000000D+02-1.893759844527D+00-8.720363238132D-09
   -1.750072897561D-11 1.000000000000D+00 1.546000000000D+03 0.000000000000D+00
    2.000000000000D+00 0.000000000000D+00-1.769512891769D-08 2.700000000000D+01
    2.881800000000D+04 4.000000000000D+00
21 09  8 23 10  0  0.0-4.801899194717D-06-2.273736754432D-12 0.000000000000D+00
    3.600000000000D+01 8.756250000000D+01 5.177358514906D-09-3.475496671472D-01
    4.848465323448D-06 1.550944906194D-02 8.478760719299D-06 5.153763395309D+03
    3.600000000000D+04 1.490116119385D-07-2.007013738144D+00 1.881271600723D-07
    9.334610443193D-01 2.028437500000D+02-2.563993168790D+00-8.654646215040D-09
    4.935919886590D-10 1.000000000000D+00 1.546000000000D+03 0.000000000000D+00
    2.000000000000D+00 0.000000000000D+00-1.210719347000D-08 3.600000000000D+01
    2.881800000000D+04 4.000000000000D+00
19 09  8 23 10  0  0.0 1.397170126438D-05-1.591615728103D-12 0.000000000000D+00
    1.800000000000D+01-2.603125000000D+01 4.263391873099D-09 2.718722217762D+00
   -1.372769474983D-06 5.817467346787D-03 1.202896237373D-05 5.153651027679D+03
    3.600000000000D+04-1.490116119385D-08-2.996601783601D+00 7.823109626770D-08
    9.579960896167D-01 1.454062500000D+02-2.830560736673D-01-7.824611640768D-09
   -2.925121843066D-10 1.000000000000D+00 1.546000000000D+03 0.000000000000D+00
    2.000000000000D+00 0.000000000000D+00-1.443549990654D-08 1.800000000000D+01
    2.881800000000D+04 4.000000000000D+00
 9 09  8 23 10  0  0.0 7.351581007242D-05 2.046363078989D-12 0.000000000000D+00
    3.500000000000D+01 3.837500000000D+01 4.384111187257D-09-3.267948592205D-01
    2.160668373108D-06 2.072527760174D-02 9.519979357719D-06 5.153627834320D+03
    3.600000000000D+04-1.918524503708D-07 1.084920282667D+00 8.568167686462D-08
    9.772173410019D-01 2.080312500000D+02 1.507042105279D+00-8.334632885200D-09
    4.096599211229D-10 1.000000000000D+00 1.546000000000D+03 0.000000000000D+00
    2.000000000000D+00 0.000000000000D+00-5.587935447693D-09 3.500000000000D+01
    2.911800000000D+04 4.000000000000D+00
 9 09  8 23  9 59 44.0 7.351627573371D-05 2.046363078989D-12 0.000000000000D+00
    5.200000000000D+01 3.837500000000D+01 4.384111187257D-09-3.291286158594D-01
    2.160668373108D-06 2.072527923156D-02 9.519979357719D-06 5.153627822876D+03
    3.598400000000D+04-1.918524503708D-07 1.084920414330D+00 8.568167686462D-08
    9.772173395389D-01 2.080312500000D+02 1.507042105279D+00-8.334632885200D-09
    4.096599211229D-10 1.000000000000D+00 1.546000000000D+03 0.000000000000D+00
    2.000000000000D+00 0.000000000000D+00-5.587935447693D-09 5.200000000000D+01
    2.989800000000D+04 4.000000000000D+00
26 09  8 23 10  0  0.0 6.419420242310D-05-4.547473508865D-13 0.000000000000D+00
    6.800000000000D+01-5.406250000000D+01 3.861946579862D-09 9.334266130794D-02
   -2.648681402206D-06 2.019250125159D-02 1.078657805920D-05 5.154918920517D+03
    3.600000000000D+04-1.620501279831D-07 1.283890363301D-01 2.179294824600D-07
    9.926826248273D-01 1.921875000000D+02 1.033028871170D+00-7.983903990219D-09
   -3.085842823454D-10 1.000000000000D+00 1.546000000000D+03 0.000000000000D+00
    2.000000000000D+00 0.000000000000D+00-6.519258022308D-09 6.800000000000D+01
    3.103800000000D+04 4.000000000000D+00
26 09  8 23  9 59 44.0 6.419047713280D-05-4.547473508865D-13 0.000000000000D+00
    4.000000000000D+00-5.406250000000D+01 3.861946579862D-09 9.101170176841D-02
   -2.648681402206D-06 2.019251522142D-02 1.078657805920D-05 5.154918916702D+03
    3.598400000000D+04-1.620501279831D-07 1.283891636040D-01 2.179294824600D-07
    9.926826145869D-01 1.921875000000D+02 1.033027788611D+00-7.984261147953D-09
   -3.089414400796D-10 1.000000000000D+00 1.546000000000D+03 0.000000000000D+00
    2.000000000000D+00 0.000000000000D+00-6.519258022308D-09 4.000000000000D+00
    3.349800000000D+04 4.000000000000D+00
14 09  8 23 10  0  0.0-6.122561171651D-05 5.343281372916D-12 0.000000000000D+00
    1.040000000000D+02-5.471875000000D+01 3.771942830845D-09 2.856185677884D+00
   -2.857297658920D-06 4.800806520507D-03 1.094117760658D-05 5.153644062042D+03
    3.600000000000D+04-5.587935447693D-08 1.108903768350D-01-1.136213541031D-07
    9.883176020466D-01 1.818750000000D+02-2.166564262281D+00-7.597459321819D-09
   -3.053698627377D-10 1.000000000000D+00 1.546000000000D+03 0.000000000000D+00
    2.800000000000D+00 0.000000000000D+00-9.313225746155D-09 1.040000000000D+02
    3.442800000000D+04 4.000000000000D+00
 9 09  8 23 11 59 44.0 7.353071123362D-05 2.046363078989D-12 0.000000000000D+00
    5.300000000000D+01 3.275000000000D+01 4.342323732356D-09 7.210522134618D-01
    1.767650246620D-06 2.072738972493D-02 1.038797199726D-05 5.153632043839D+03
    4.318400000000D+04-2.793967723846D-07 1.084860500520D+00 5.587935447693D-09
    9.772201249350D-01 1.937812500000D+02 1.507067911153D+00-8.304274477793D-09
    3.928735076157D-10 1.000000000000D+00 1.546000000000D+03 0.000000000000D+00
    2.000000000000D+00 0.000000000000D+00-5.587935447693D-09 5.300000000000D+01
    3.601800000000D+04 4.000000000000D+00
18 09  8 23 12  0  0.0 7.280148565769D-06 2.842170943040D-12 0.000000000000D+00
    9.400000000000D+01-3.468750000000D+00 5.522015728406D-09-5.519018263206D-01
    8.009374141693D-08 1.085727533791D-02 2.706423401833D-06 5.153614505768D+03
    4.320000000000D+04 2.607703208923D-08-9.484597947918D-01 2.142041921616D-07
    9.408515938111D-01 3.170625000000D+02-2.388022983794D+00-8.923228831155D-09
    8.571785620706D-12 1.000000000000D+00 1.546000000000D+03 0.000000000000D+00
    2.000000000000D+00 0.000000000000D+00-1.071020960808D-08 9.400000000000D+01
    3.601800000000D+04 4.000000000000D+00
15 09  8 23 12  0  0.0-3.155325539410D-04-1.705302565824D-12 0.000000000000D+00
    1.000000000000D+01-7.753125000000D+01 4.648050752828D-09-2.185020704483D+00
   -3.926455974579D-06 1.588679035194D-03 1.066364347935D-05 5.153652538300D+03
    4.320000000000D+04-2.607703208923D-08 5.563667342220D-02-5.587935447693D-09
    9.562144909260D-01 1.737187500000D+02-4.991195255088D-01-8.087479733136D-09
   -2.735828243942D-10 1.000000000000D+00 1.546000000000D+03 0.000000000000D+00
    2.000000000000D+00 0.000000000000D+00-9.778887033463D-09 1.000000000000D+01
    3.601800000000D+04 4.000000000000D+00
26 09  8 23 11 59 44.0 6.418675184250D-05-4.547473508865D-13 0.000000000000D+00
    5.000000000000D+00-7.009375000000D+01 3.838374169405D-09 1.140348008963D+00
   -3.475695848465D-06 2.019304758869D-02 1.132115721703D-05 5.154921562195D+03
    4.318400000000D+04-3.427267074585D-07 1.283319956913D-01 6.891787052155D-08
    9.926799988893D-01 1.856875000000D+02 1.033107169472D+00-7.926758752748D-09
   -3.589435228671D-10 1.000000000000D+00 1.546000000000D+03 0.000000000000D+00
    2.000000000000D+00 0.000000000000D+00-6.519258022308D-09 5.000000000000D+00
    3.601800000000D+04 4.000000000000D+00
22 09  8 23 12  0  0.0 1.926254481077D-04-1.023181539495D-12 0.000000000000D+00
    2.800000000000D+01-3.687500000000D+00 5.450227023832D-09-1.574686180617D+00
   -2.421438694000D-08 5.300250137225D-03 2.440065145493D-06 5.153654119492D+03
    4.320000000000D+04 8.754432201386D-08-9.429565047119D-01 1.266598701477D-07
    9.385240048348D-01 3.173125000000D+02-1.893443106671D+00-8.723220500005D-09
    1.892935991239D-11 1.000000000000D+00 1.546000000000D+03 0.000000000000D+00
    2.000000000000D+00 0.000000000000D+00-1.769512891769D-08 2.800000000000D+01
    3.601800000000D+04 4.000000000000D+00
27 09  8 23 12  0  0.0 7.664505392313D-05 3.183231456205D-12 0.000000000000D+00
    6.000000000000D+01 5.375000000000D+01 4.168387915803D-09-2.254807099001D+00
    2.898275852203D-06 2.132243476808D-02 9.849667549133D-06 5.153752483368D+03
    4.320000000000D+04 2.551823854446D-07 1.060598428422D+00 2.235174179077D-07
    9.752843112720D-01 1.894062500000D+02-1.555591227339D+00-7.539242611145D-09
    5.928818387655D-10 1.000000000000D+00 1.546000000000D+03 0.000000000000D+00
    2.000000000000D+00 0.000000000000D+00-4.190951585770D-09 6.000000000000D+01
    3.601800000000D+04 4.000000000000D+00
28 09  8 23 12  0  0.0-2.622092142701D-05 0.000000000000D+00 0.000000000000D+00
    5.900000000000D+01-3.462500000000D+01 4.819486465242D-09-1.333665236625D+00
   -1.737847924232D-06 1.502141414676D-02 4.129484295845D-06 5.153643440247D+03
    4.320000000000D+04 2.663582563400D-07 2.196476862775D+00 2.849847078323D-07
    9.673565007268D-01 3.030312500000D+02-2.019231563271D+00-8.336061516137D-09
   -3.171560679661D-10 1.000000000000D+00 1.546000000000D+03 0.000000000000D+00
    2.800000000000D+00 0.000000000000D+00-1.071020960808D-08 5.900000000000D+01
    3.601800000000D+04 4.000000000000D+00
